{
  "links" : {
    "next" : "https://api.nasa.gov/neo/rest/v1/neo/browse?page=49&size=20&api_key=jqAGvNAwUIBu4fl9FSOjdm3V4F7hIglRzI6pdX9d",
    "prev" : "https://api.nasa.gov/neo/rest/v1/neo/browse?page=47&size=20&api_key=jqAGvNAwUIBu4fl9FSOjdm3V4F7hIglRzI6pdX9d",
    "self" : "https://api.nasa.gov/neo/rest/v1/neo/browse?page=48&size=20&api_key=jqAGvNAwUIBu4fl9FSOjdm3V4F7hIglRzI6pdX9d"
  },
  "page" : {
    "size" : 20,
    "total_elements" : 20750,
    "total_pages" : 1038,
    "number" : 48
  },
  "near_earth_objects" : [ {
    "links" : {
      "self" : "https://api.nasa.gov/neo/rest/v1/neo/3439359?api_key=jqAGvNAwUIBu4fl9FSOjdm3V4F7hIglRzI6pdX9d"
    },
    "neo_reference_id" : "3439359",
    "name" : "(2008 WC)",
    "designation" : "2008 WC",
    "nasa_jpl_url" : "http://ssd.jpl.nasa.gov/sbdb.cgi?sstr=3439359",
    "absolute_magnitude_h" : 26.5,
    "estimated_diameter" : {
      "kilometers" : {
        "estimated_diameter_min" : 0.0133215567,
        "estimated_diameter_max" : 0.0297879063
      },
      "meters" : {
        "estimated_diameter_min" : 13.3215566698,
        "estimated_diameter_max" : 29.7879062798
      },
      "miles" : {
        "estimated_diameter_min" : 0.008277629,
        "estimated_diameter_max" : 0.0185093411
      },
      "feet" : {
        "estimated_diameter_min" : 43.7058959846,
        "estimated_diameter_max" : 97.7293544391
      }
    },
    "is_potentially_hazardous_asteroid" : false,
    "close_approach_data" : [ {
      "close_approach_date" : "1962-06-01",
      "epoch_date_close_approach" : -239389200000,
      "relative_velocity" : {
        "kilometers_per_second" : "12.7890212891",
        "kilometers_per_hour" : "46040.4766409256",
        "miles_per_hour" : "28607.7617216907"
      },
      "miss_distance" : {
        "astronomical" : "0.0756486633",
        "lunar" : "29.4273300171",
        "kilometers" : "11316879",
        "miles" : "7031983"
      },
      "orbiting_body" : "Mars"
    }, {
      "close_approach_date" : "2008-11-26",
      "epoch_date_close_approach" : 1227686400000,
      "relative_velocity" : {
        "kilometers_per_second" : "8.1450003791",
        "kilometers_per_hour" : "29322.0013646431",
        "miles_per_hour" : "18219.5513479362"
      },
      "miss_distance" : {
        "astronomical" : "0.0129946934",
        "lunar" : "5.0549359322",
        "kilometers" : "1943978.5",
        "miles" : "1207932.25"
      },
      "orbiting_body" : "Earth"
    } ],
    "orbital_data" : {
      "orbit_id" : "15",
      "orbit_determination_date" : "2017-04-06 09:02:12",
      "first_observation_date" : "2008-11-18",
      "last_observation_date" : "2008-11-26",
      "data_arc_in_days" : 8,
      "observations_used" : 68,
      "orbit_uncertainty" : "7",
      "minimum_orbit_intersection" : ".00582108",
      "jupiter_tisserand_invariant" : "4.014",
      "epoch_osculation" : "2458600.5",
      "eccentricity" : ".4580162562165452",
      "semi_major_axis" : "1.742718385147244",
      "inclination" : "2.223699308309827",
      "ascending_node_longitude" : "238.8654165137815",
      "orbital_period" : "840.3094473434546",
      "perihelion_distance" : ".9445250347423596",
      "perihelion_argument" : "219.1026767347229",
      "aphelion_distance" : "2.540911735552128",
      "perihelion_time" : "2458183.734616144529",
      "mean_anomaly" : "178.5479607093439",
      "mean_motion" : ".4284136054141723",
      "equinox" : "J2000",
      "orbit_class" : {
        "orbit_class_type" : "APO",
        "orbit_class_range" : "a (semi-major axis) > 1.0 AU; q (perihelion) < 1.017 AU",
        "orbit_class_description" : "Near-Earth asteroid orbits which cross the Earth’s orbit similar to that of 1862 Apollo"
      }
    },
    "is_sentry_object" : false
  }, {
    "links" : {
      "self" : "https://api.nasa.gov/neo/rest/v1/neo/3439360?api_key=jqAGvNAwUIBu4fl9FSOjdm3V4F7hIglRzI6pdX9d"
    },
    "neo_reference_id" : "3439360",
    "name" : "(2008 WE)",
    "designation" : "2008 WE",
    "nasa_jpl_url" : "http://ssd.jpl.nasa.gov/sbdb.cgi?sstr=3439360",
    "absolute_magnitude_h" : 25.9,
    "estimated_diameter" : {
      "kilometers" : {
        "estimated_diameter_min" : 0.0175612318,
        "estimated_diameter_max" : 0.0392681082
      },
      "meters" : {
        "estimated_diameter_min" : 17.561231848,
        "estimated_diameter_max" : 39.2681081809
      },
      "miles" : {
        "estimated_diameter_min" : 0.0109120402,
        "estimated_diameter_max" : 0.0244000636
      },
      "feet" : {
        "estimated_diameter_min" : 57.6155918963,
        "estimated_diameter_max" : 128.8323800441
      }
    },
    "is_potentially_hazardous_asteroid" : false,
    "close_approach_data" : [ {
      "close_approach_date" : "2008-11-14",
      "epoch_date_close_approach" : 1226649600000,
      "relative_velocity" : {
        "kilometers_per_second" : "7.0101443926",
        "kilometers_per_hour" : "25236.5198133056",
        "miles_per_hour" : "15680.9919917731"
      },
      "miss_distance" : {
        "astronomical" : "0.0316778463",
        "lunar" : "12.3226823807",
        "kilometers" : "4738938.5",
        "miles" : "2944639.75"
      },
      "orbiting_body" : "Earth"
    } ],
    "orbital_data" : {
      "orbit_id" : "12",
      "orbit_determination_date" : "2017-04-06 09:02:11",
      "first_observation_date" : "2008-11-18",
      "last_observation_date" : "2008-11-23",
      "data_arc_in_days" : 5,
      "observations_used" : 39,
      "orbit_uncertainty" : "8",
      "minimum_orbit_intersection" : ".0272754",
      "jupiter_tisserand_invariant" : "3.369",
      "epoch_osculation" : "2454789.5",
      "eccentricity" : ".5570649932539633",
      "semi_major_axis" : "2.296648354355639",
      "inclination" : "1.030271364642719",
      "ascending_node_longitude" : "66.09393845353726",
      "orbital_period" : "1271.276981323375",
      "perihelion_distance" : "1.017265954329789",
      "perihelion_argument" : "340.1164944676049",
      "aphelion_distance" : "3.576030754381489",
      "perihelion_time" : "2454780.330906573905",
      "mean_anomaly" : "2.596502321593249",
      "mean_motion" : ".2831798304294372",
      "equinox" : "J2000",
      "orbit_class" : {
        "orbit_class_type" : "AMO",
        "orbit_class_range" : "1.017 AU < q (perihelion) < 1.3 AU",
        "orbit_class_description" : "Near-Earth asteroid orbits similar to that of 1221 Amor"
      }
    },
    "is_sentry_object" : false
  }, {
    "links" : {
      "self" : "https://api.nasa.gov/neo/rest/v1/neo/3439480?api_key=jqAGvNAwUIBu4fl9FSOjdm3V4F7hIglRzI6pdX9d"
    },
    "neo_reference_id" : "3439480",
    "name" : "(2008 WM)",
    "designation" : "2008 WM",
    "nasa_jpl_url" : "http://ssd.jpl.nasa.gov/sbdb.cgi?sstr=3439480",
    "absolute_magnitude_h" : 26.8,
    "estimated_diameter" : {
      "kilometers" : {
        "estimated_diameter_min" : 0.0116025908,
        "estimated_diameter_max" : 0.0259441818
      },
      "meters" : {
        "estimated_diameter_min" : 11.6025908209,
        "estimated_diameter_max" : 25.9441817907
      },
      "miles" : {
        "estimated_diameter_min" : 0.0072095135,
        "estimated_diameter_max" : 0.0161209622
      },
      "feet" : {
        "estimated_diameter_min" : 38.066244069,
        "estimated_diameter_max" : 85.1187093863
      }
    },
    "is_potentially_hazardous_asteroid" : false,
    "close_approach_data" : [ ],
    "orbital_data" : {
      "orbit_id" : "6",
      "orbit_determination_date" : "2017-04-06 09:02:11",
      "first_observation_date" : "2008-11-19",
      "last_observation_date" : "2008-11-19",
      "data_arc_in_days" : null,
      "observations_used" : 10,
      "orbit_uncertainty" : "9",
      "minimum_orbit_intersection" : ".0440301",
      "jupiter_tisserand_invariant" : "5.722",
      "epoch_osculation" : "2454789.5",
      "eccentricity" : ".1415376678146391",
      "semi_major_axis" : "1.074257787470575",
      "inclination" : "12.38213430843735",
      "ascending_node_longitude" : "57.73221805793354",
      "orbital_period" : "406.6878453103132",
      "perihelion_distance" : ".9222098456002753",
      "perihelion_argument" : "84.89972052625276",
      "aphelion_distance" : "1.226305729340874",
      "perihelion_time" : "2454868.426981382158",
      "mean_anomaly" : "290.1338517360987",
      "mean_motion" : ".8851998016447008",
      "equinox" : "J2000",
      "orbit_class" : {
        "orbit_class_type" : "APO",
        "orbit_class_range" : "a (semi-major axis) > 1.0 AU; q (perihelion) < 1.017 AU",
        "orbit_class_description" : "Near-Earth asteroid orbits which cross the Earth’s orbit similar to that of 1862 Apollo"
      }
    },
    "is_sentry_object" : false
  } ]
}